[
    {
        "Altitude(m)": 612513.928737774,
        "Argument of Periapsis(deg)": 0.0,
        "Eccentricity": 0.0,
        "Inclination(deg)": 60.0,
        "Latitude(deg)": -28.135953966785223,
        "Longitude(deg)": -172.08693895944168,
        "Mean Anomaly(deg)": 212.7273,
        "RAAN(deg)": 90.0,
        "Satellite Name": "Test1 409",
        "Satellite Number": 409,
        "Semi-Major Axis(m)": 6980739.136638005,
        "Time(s)": 0
    },
    {
        "Altitude(m)": 612708.2968766472,
        "Argument of Periapsis(deg)": 0.00010418945913296404,
        "Eccentricity": 0.0,
        "Inclination(deg)": 60.0,
        "Latitude(deg)": -28.647693760635807,
        "Longitude(deg)": -171.72970977532742,
        "Mean Anomaly(deg)": 213.34740614546186,
        "RAAN(deg)": 89.99957995086027,
        "Satellite Name": "Test1 409",
        "Satellite Number": 409,
        "Semi-Major Axis(m)": 6980739.136638005,
        "Time(s)": 10
    }
]